IRIDIUM 155             
1 43573U 18061E   24151.68095421  .00000304  00000+0  10148-3 0  9999
2 43573  86.3984   9.0778 0001876  89.3700 270.7711 14.34218809306220
IRIDIUM 154             
1 43574U 18061F   24151.66192530  .00000655  00000+0  22687-3 0  9997
2 43574  86.3989   9.1827 0002351  82.3603 277.7860 14.34218665306262
IRIDIUM 163             
1 43575U 18061G   24151.57312491  .00000412  00000+0  14019-3 0  9999
2 43575  86.3984   9.1583 0002075  84.3208 275.8224 14.34221165306221
IRIDIUM 156             
1 43576U 18061H   24151.68729656  .00000294  00000+0  97960-4 0  9992
2 43576  86.3986   9.1171 0002113  91.9016 268.2422 14.34218522306220
IRIDIUM 164             
1 43577U 18061J   24151.66826971  .00000395  00000+0  13391-3 0  9996
2 43577  86.3987   9.1536 0002438  87.1023 273.0452 14.34220769306270
IRIDIUM 159             
1 43578U 18061K   24151.70632500  .00000458  00000+0  15645-3 0  9999
2 43578  86.3985   9.0902 0002454  84.8284 275.3192 14.34219595306244
IRIDIUM 180             
1 43922U 19002A   24151.98489279  .00000356  00000+0  12016-3 0  9997
2 43922  86.3944 305.8566 0002193  87.9291 272.2155 14.34217547281935
IRIDIUM 176             
1 43923U 19002B   24151.92205182  .00001795  00000+0  28081-3 0  9998
2 43923  86.6071 305.9058 0002367  86.8364 273.3124 14.72250992289309
IRIDIUM 168             
1 43924U 19002C   24151.97855304  .00000489  00000+0  16736-3 0  9994
2 43924  86.3945 305.9154 0002196  91.7164 268.4283 14.34219457281871
IRIDIUM 173             
1 43925U 19002D   24151.89609923  .00000223  00000+0  72667-4 0  9992
2 43925  86.3942 305.8696 0002218  90.4755 269.6695 14.34218584281854
IRIDIUM 169             
1 43926U 19002E   24151.87549910  .00000197  00000+0  57961-4 0  9990
2 43926  86.4218 337.5040 0000818  15.8968 344.2256 14.38587627282785
IRIDIUM 172             
1 43927U 19002F   24151.88975626  .00000134  00000+0  40775-4 0  9995
2 43927  86.3942 305.8779 0002246  89.3600 270.7853 14.34218481281850
IRIDIUM 175             
1 43928U 19002G   24151.84835193  .00001851  00000+0  28960-3 0  9994
2 43928  86.1494 280.0499 0001882  88.9141 271.2291 14.72245673289286
IRIDIUM 171             
1 43929U 19002H   24151.87072939  .00000528  00000+0  18140-3 0  9998
2 43929  86.3951 306.1095 0002273  95.3201 264.8255 14.34220770281844
IRIDIUM 170             
1 43930U 19002J   24151.92820565  .00000112  00000+0  13908-4 0  9999
2 43930  86.6070 305.9084 0002268  90.5944 269.5533 14.72250010289314
IRIDIUM 167             
1 43931U 19002K   24151.86438690  .00000152  00000+0  47289-4 0  9990
2 43931  86.3943 305.9040 0002078  92.4410 267.7023 14.34218034281843
IRIDIUM 181             
1 56726U 23068S   24152.12458307  .00000615  00000+0  17597-3 0  9992
2 56726  86.8645 358.6990 0002122  92.7947 267.3498 14.43586092 54673
IRIDIUM 177             
1 56727U 23068T   24151.91920543  .00002433  00000+0  31682-3 0  9996
2 56727  86.1958 323.5636 0002379  97.1802 262.9690 14.80223150 55822
IRIDIUM 174             
1 56728U 23068U   24151.98137727  .00002441  00000+0  31783-3 0  9999
2 56728  86.1963 323.6362 0001968  87.6709 272.4738 14.80222173 55833
IRIDIUM 178             
1 56729U 23068V   24151.90837542  .00000799  00000+0  10180-3 0  9996
2 56729  86.5775 340.3171 0002111  79.4186 280.7273 14.80206218 55829
IRIDIUM 179             
1 56730U 23068W   24151.56477451  .00001929  00000+0  25021-3 0  9995
2 56730  86.6787 344.3758 0002230  72.6102 287.5363 14.80273718 55773
